     2.10           N: GPS NAV DATA                         RINEX VERSION / TYPE
CONVBIN 2.4.3                           20180527 191928 UTC PGM / RUN BY / DATE 
log: /home/cbrant/GPSdopplar/nvsData/2018-05-27-data/test.nvCOMMENT             
format: NVS BINR                                            COMMENT             
                                                            END OF HEADER       
18 18  5 27 20  0  0.0  .143810175359E-04  .477484718431E-11  .000000000000E+00
     .105000000000E+03  .172500000000E+02  .488377480817E-08  .476478476361E+00
     .108964741230E-05  .145375989377E-01  .101309269667E-04  .515365498352E+04
     .720000000000E+05 -.134110450745E-06 -.279432025623E+01  .577419996262E-07
     .949890708612E+00  .181062500000E+03  .130664249036E+01 -.837034865862E-08
     .395016454021E-09  .100000000000E+01  .200300000000E+04  .000000000000E+00
     .200000000000E+01  .000000000000E+00 -.698491930962E-08  .105000000000E+03
     .692855000000E+05  .000000000000E+00
 3 18  5 27 20  0  0.0  .784289985895E-04  .704858393874E-11  .000000000000E+00
     .320000000000E+02 -.111250000000E+02  .498592183165E-08 -.123062750560E+00
    -.718981027603E-06  .139529909939E-02  .446848571301E-05  .515374137115E+04
     .720000000000E+05  .260770320892E-07 -.170432281543E+01  .298023223877E-07
     .960536986678E+00  .290968750000E+03  .429956354574E+00 -.831213194795E-08
    -.213223167315E-09  .100000000000E+01  .200300000000E+04  .000000000000E+00
     .200000000000E+01  .000000000000E+00  .232830643654E-08  .320000000000E+02
     .692905000000E+05  .000000000000E+00
19 18  5 27 20  0  0.0 -.433069199324E-03  .295585778076E-11  .000000000000E+00
     .880000000000E+02 -.856562500000E+02  .399623780248E-08 -.508662176713E+00
    -.438839197159E-05  .989289116114E-02  .100564211607E-04  .515371915245E+04
     .720000000000E+05 -.931322574615E-07  .258119991761E+01  .968575477600E-07
     .980457501202E+00  .198875000000E+03  .118781612234E+01 -.788175687824E-08
    -.131434046184E-09  .100000000000E+01  .200300000000E+04  .000000000000E+00
     .200000000000E+01  .000000000000E+00 -.153668224812E-07  .880000000000E+02
     .692955000000E+05  .000000000000E+00
28 18  5 27 20  0  0.0  .718806862831E-03  .318323145621E-11  .000000000000E+00
     .480000000000E+02 -.345000000000E+02  .423410482023E-08 -.246959518471E+01
    -.160746276379E-05  .194847622188E-01  .992789864540E-06  .515367859459E+04
     .720000000000E+05  .221654772758E-06  .152295244975E+01  .173225998878E-06
     .985598030023E+00  .366937500000E+03 -.152045412653E+01 -.788139972051E-08
     .632169189527E-10  .100000000000E+01  .200300000000E+04  .000000000000E+00
     .200000000000E+01  .000000000000E+00 -.111758708954E-07  .480000000000E+02
     .693005000000E+05  .000000000000E+00
30 18  5 27 20  0  0.0  .693406909704E-04 -.432009983342E-11  .000000000000E+00
     .570000000000E+02  .112750000000E+03  .476698411647E-08  .159388289448E+00
     .593997538090E-05  .341193762142E-02  .715069472790E-05  .515373770714E+04
     .720000000000E+05  .633299350739E-07  .440542010777E+00  .316649675369E-07
     .944539670269E+00  .232312500000E+03 -.308139453723E+01 -.827855912093E-08
     .393944980818E-09  .100000000000E+01  .200300000000E+04  .000000000000E+00
     .200000000000E+01  .000000000000E+00  .372529029846E-08  .570000000000E+02
     .693055000000E+05  .000000000000E+00
